{
    "links": {
        "self": "http://www.neowsapp.com/rest/v1/neo/3727637?api_key=iIulBulltgU6a56xZRHN4H3l9WmuAYTsLGpBGhQ2"
    },
    "id": "3727637",
    "neo_reference_id": "3727637",
    "name": "(2015 RM83)",
    "designation": "2015 RM83",
    "nasa_jpl_url": "http://ssd.jpl.nasa.gov/sbdb.cgi?sstr=3727637",
    "absolute_magnitude_h": 22.3,
    "estimated_diameter": {
        "kilometers": {
            "estimated_diameter_min": 0.0921626549,
            "estimated_diameter_max": 0.2060819612
        },
        "meters": {
            "estimated_diameter_min": 92.1626548503,
            "estimated_diameter_max": 206.0819612321
        },
        "miles": {
            "estimated_diameter_min": 0.057267201,
            "estimated_diameter_max": 0.1280533543
        },
        "feet": {
            "estimated_diameter_min": 302.370924539,
            "estimated_diameter_max": 676.1219416887
        }
    },
    "is_potentially_hazardous_asteroid": false,
    "close_approach_data": [
        {
            "close_approach_date": "2004-08-23",
            "close_approach_date_full": "2004-Aug-23 01:11",
            "epoch_date_close_approach": 1093223460000,
            "relative_velocity": {
                "kilometers_per_second": "14.1490585313",
                "kilometers_per_hour": "50936.6107128308",
                "miles_per_hour": "31650.0290287587"
            },
            "miss_distance": {
                "astronomical": "0.3486460074",
                "lunar": "135.6232968786",
                "kilometers": "52156700.091044238",
                "miles": "32408670.6265489644"
            },
            "orbiting_body": "Earth"
        },
        {
            "close_approach_date": "2015-09-12",
            "close_approach_date_full": "2015-Sep-12 06:13",
            "epoch_date_close_approach": 1442038380000,
            "relative_velocity": {
                "kilometers_per_second": "11.5129104675",
                "kilometers_per_hour": "41446.4776830418",
                "miles_per_hour": "25753.2294247767"
            },
            "miss_distance": {
                "astronomical": "0.1032150588",
                "lunar": "40.1506578732",
                "kilometers": "15440752.948404756",
                "miles": "9594438.9820913928"
            },
            "orbiting_body": "Earth"
        },
        {
            "close_approach_date": "2026-09-30",
            "close_approach_date_full": "2026-Sep-30 23:27",
            "epoch_date_close_approach": 1790810820000,
            "relative_velocity": {
                "kilometers_per_second": "18.343976829",
                "kilometers_per_hour": "66038.3165845444",
                "miles_per_hour": "41033.6417688798"
            },
            "miss_distance": {
                "astronomical": "0.4920113794",
                "lunar": "191.3924265866",
                "kilometers": "73603854.374001878",
                "miles": "45735314.3332987964"
            },
            "orbiting_body": "Earth"
        }
    ],
    "orbital_data": {
        "orbit_id": "16",
        "orbit_determination_date": "2017-04-06 08:31:57",
        "first_observation_date": "2015-09-15",
        "last_observation_date": "2015-10-02",
        "data_arc_in_days": 17,
        "observations_used": 128,
        "orbit_uncertainty": "7",
        "minimum_orbit_intersection": ".0870677",
        "jupiter_tisserand_invariant": "4.070",
        "epoch_osculation": "2459000.5",
        "eccentricity": ".3564878224261473",
        "semi_major_axis": "1.698302433947321",
        "inclination": "19.51398660214825",
        "ascending_node_longitude": "347.6110223084502",
        "orbital_period": "808.3900788529057",
        "perihelion_distance": "1.092878297448414",
        "perihelion_argument": "355.4523133182255",
        "aphelion_distance": "2.303726570446227",
        "perihelion_time": "2458891.915052972180",
        "mean_anomaly": "48.35608693452081",
        "mean_motion": ".4453295623207487",
        "equinox": "J2000",
        "orbit_class": {
            "orbit_class_type": "AMO",
            "orbit_class_description": "Near-Earth asteroid orbits similar to that of 1221 Amor",
            "orbit_class_range": "1.017 AU < q (perihelion) < 1.3 AU"
        }
    },
    "is_sentry_object": false
}